[{"OBJECT_NAME":"STARLINK-36068","OBJECT_ID":"2025-280AA","EPOCH":"2026-03-09T23:39:32.549760","MEAN_MOTION":14.98335041,"ECCENTRICITY":0.00024521,"INCLINATION":70.0027,"RA_OF_ASC_NODE":333.566,"ARG_OF_PERICENTER":259.1288,"MEAN_ANOMALY":100.9596,"EPHEMERIS_TYPE":0,"CLASSIFICATION_TYPE":"U","NORAD_CAT_ID":66845,"ELEMENT_SET_NO":999,"REV_AT_EPOCH":1612,"BSTAR":0.00043628706,"MEAN_MOTION_DOT":5.117e-5,"MEAN_MOTION_DDOT":0},{"OBJECT_NAME":"FENGYUN 1C DEB","OBJECT_ID":"1999-025UY","EPOCH":"2026-03-09T17:57:35.667936","MEAN_MOTION":14.7972234,"ECCENTRICITY":0.00936968,"INCLINATION":98.7622,"RA_OF_ASC_NODE":152.739,"ARG_OF_PERICENTER":348.8437,"MEAN_ANOMALY":135.9619,"EPHEMERIS_TYPE":0,"CLASSIFICATION_TYPE":"U","NORAD_CAT_ID":30191,"ELEMENT_SET_NO":999,"REV_AT_EPOCH":1561,"BSTAR":0.00058698709,"MEAN_MOTION_DOT":4.686e-5,"MEAN_MOTION_DDOT":0}]
